TIANMU-1 08             
1 57400U 23101B   26066.00237819  .00000346  00000+0  14775-4 0  9993
2 57400  97.2717 118.7901 0006380 134.2174 225.9592 15.29204229146020
STARLINK-31691          
1 59856U 24097X   26068.83431115 -.00001985  00000+0 -62593-4 0  9996
2 59856  43.0044 273.1300 0001941 276.3289  83.7342 15.27587247101948
